{
  "type": "FeatureCollection",
  "features": [
    {
      "type": "Feature",
      "properties": {
        "norad_id": 31485,
        "name": "FENGYUN 1C DEB",
        "group": "fengyun-1c-debris",
        "lat": -17.707539262616315,
        "lon": -170.33422577051826,
        "alt_km": 862.1193445135405,
        "timestamp": "2025-12-21T22:41:41.742615+00:00",
        "meta_object_name": "FENGYUN 1C DEB",
        "meta_object_id": "1999-025BVZ",
        "meta_epoch": "2025-12-18T17:44:13.555392",
        "meta_mean_motion": 13.40072022,
        "meta_eccentricity": 0.04462178,
        "meta_inclination": 102.7177,
        "meta_ra_of_asc_node": 181.5069,
        "meta_arg_of_pericenter": 305.9941,
        "meta_mean_anomaly": 50.0576,
        "meta_ephemeris_type": 0,
        "meta_classification_type": "U",
        "meta_norad_cat_id": 31485,
        "meta_element_set_no": 999,
        "meta_rev_at_epoch": 90525,
        "meta_bstar": 0.0021234273,
        "meta_mean_motion_dot": 2.008e-05,
        "meta_mean_motion_ddot": 0,
        "tle_line1": "1 31485U 99025BVZ 25352.73904578  .00002008  00000+0  21234-2 0  9999",
        "tle_line2": "2 31485 102.7177 181.5069 0446217 305.9941  50.0576 13.40072022905258"
      },
      "geometry": {
        "type": "Point",
        "coordinates": [
          -170.33422577051826,
          -17.707539262616315
        ]
      }
    },
    {
      "type": "Feature",
      "properties": {
        "norad_id": 31487,
        "name": "FENGYUN 1C DEB",
        "group": "fengyun-1c-debris",
        "lat": -24.70910565396113,
        "lon": -18.21009884648979,
        "alt_km": 889.2913327439574,
        "timestamp": "2025-12-21T22:41:41.742625+00:00",
        "meta_object_name": "FENGYUN 1C DEB",
        "meta_object_id": "1999-025BWB",
        "meta_epoch": "2025-12-17T18:08:34.599264",
        "meta_mean_motion": 13.97752713,
        "meta_eccentricity": 0.01207253,
        "meta_inclination": 102.4129,
        "meta_ra_of_asc_node": 161.9631,
        "meta_arg_of_pericenter": 294.4769,
        "meta_mean_anomaly": 80.0779,
        "meta_ephemeris_type": 0,
        "meta_classification_type": "U",
        "meta_norad_cat_id": 31487,
        "meta_element_set_no": 999,
        "meta_rev_at_epoch": 94482,
        "meta_bstar": 0.0013053066,
        "meta_mean_motion_dot": 1.89e-05,
        "meta_mean_motion_ddot": 0,
        "tle_line1": "1 31487U 99025BWB 25351.75595601  .00001890  00000+0  13053-2 0  9993",
        "tle_line2": "2 31487 102.4129 161.9631 0120725 294.4769  80.0779 13.97752713944822"
      },
      "geometry": {
        "type": "Point",
        "coordinates": [
          -18.21009884648979,
          -24.70910565396113
        ]
      }
    },
    {
      "type": "Feature",
      "properties": {
        "norad_id": 31491,
        "name": "FENGYUN 1C DEB",
        "group": "fengyun-1c-debris",
        "lat": -28.244880082149617,
        "lon": -89.9678677662529,
        "alt_km": 839.1839581030108,
        "timestamp": "2025-12-21T22:41:41.742635+00:00",
        "meta_object_name": "FENGYUN 1C DEB",
        "meta_object_id": "1999-025BWE",
        "meta_epoch": "2025-12-18T05:01:58.636416",
        "meta_mean_motion": 14.1729953,
        "meta_eccentricity": 0.00511133,
        "meta_inclination": 99.3072,
        "meta_ra_of_asc_node": 261.0688,
        "meta_arg_of_pericenter": 253.212,
        "meta_mean_anomaly": 106.3442,
        "meta_ephemeris_type": 0,
        "meta_classification_type": "U",
        "meta_norad_cat_id": 31491,
        "meta_element_set_no": 999,
        "meta_rev_at_epoch": 63805,
        "meta_bstar": 0.0014383052,
        "meta_mean_motion_dot": 2.896e-05,
        "meta_mean_motion_ddot": 0,
        "tle_line1": "1 31491U 99025BWE 25352.20970644  .00002896  00000+0  14383-2 0  9997",
        "tle_line2": "2 31491  99.3072 261.0688 0051113 253.2120 106.3442 14.17299530638050"
      },
      "geometry": {
        "type": "Point",
        "coordinates": [
          -89.9678677662529,
          -28.244880082149617
        ]
      }
    },
    {
      "type": "Feature",
      "properties": {
        "norad_id": 31492,
        "name": "FENGYUN 1C DEB",
        "group": "fengyun-1c-debris",
        "lat": -17.285796721942447,
        "lon": -20.022955615828884,
        "alt_km": 698.6532908255685,
        "timestamp": "2025-12-21T22:41:41.742645+00:00",
        "meta_object_name": "FENGYUN 1C DEB",
        "meta_object_id": "1999-025BWF",
        "meta_epoch": "2025-12-17T10:03:11.000448",
        "meta_mean_motion": 14.70935194,
        "meta_eccentricity": 0.00645141,
        "meta_inclination": 98.8575,
        "meta_ra_of_asc_node": 157.8403,
        "meta_arg_of_pericenter": 354.4182,
        "meta_mean_anomaly": 5.6296,
        "meta_ephemeris_type": 0,
        "meta_classification_type": "U",
        "meta_norad_cat_id": 31492,
        "meta_element_set_no": 999,
        "meta_rev_at_epoch": 96575,
        "meta_bstar": 0.0023655093,
        "meta_mean_motion_dot": 0.00014935,
        "meta_mean_motion_ddot": 0,
        "tle_line1": "1 31492U 99025BWF 25351.41887732  .00014935  00000+0  23655-2 0  9994",
        "tle_line2": "2 31492  98.8575 157.8403 0064514 354.4182   5.6296 14.70935194965751"
      },
      "geometry": {
        "type": "Point",
        "coordinates": [
          -20.022955615828884,
          -17.285796721942447
        ]
      }
    },
    {
      "type": "Feature",
      "properties": {
        "norad_id": 31493,
        "name": "FENGYUN 1C DEB",
        "group": "fengyun-1c-debris",
        "lat": 79.75299524537829,
        "lon": -155.57306769060335,
        "alt_km": 866.8022021538654,
        "timestamp": "2025-12-21T22:41:41.742655+00:00",
        "meta_object_name": "FENGYUN 1C DEB",
        "meta_object_id": "1999-025BWG",
        "meta_epoch": "2025-12-21T03:17:34.295136",
        "meta_mean_motion": 13.92984484,
        "meta_eccentricity": 0.01172359,
        "meta_inclination": 100.1363,
        "meta_ra_of_asc_node": 301.8208,
        "meta_arg_of_pericenter": 153.2709,
        "meta_mean_anomaly": 207.4555,
        "meta_ephemeris_type": 0,
        "meta_classification_type": "U",
        "meta_norad_cat_id": 31493,
        "meta_element_set_no": 999,
        "meta_rev_at_epoch": 59983,
        "meta_bstar": 0.00067667024,
        "meta_mean_motion_dot": 8.79e-06,
        "meta_mean_motion_ddot": 0,
        "tle_line1": "1 31493U 99025BWG 25355.13720249  .00000879  00000+0  67667-3 0  9991",
        "tle_line2": "2 31493 100.1363 301.8208 0117235 153.2709 207.4555 13.92984484599838"
      },
      "geometry": {
        "type": "Point",
        "coordinates": [
          -155.57306769060335,
          79.75299524537829
        ]
      }
    },
    {
      "type": "Feature",
      "properties": {
        "norad_id": 31495,
        "name": "FENGYUN 1C DEB",
        "group": "fengyun-1c-debris",
        "lat": 39.02264401460617,
        "lon": -137.93411260254896,
        "alt_km": 797.6123692582714,
        "timestamp": "2025-12-21T22:41:41.742665+00:00",
        "meta_object_name": "FENGYUN 1C DEB",
        "meta_object_id": "1999-025BWJ",
        "meta_epoch": "2025-12-20T09:32:47.149152",
        "meta_mean_motion": 14.29252624,
        "meta_eccentricity": 0.00255899,
        "meta_inclination": 99.12,
        "meta_ra_of_asc_node": 227.9275,
        "meta_arg_of_pericenter": 154.7696,
        "meta_mean_anomaly": 205.474,
        "meta_ephemeris_type": 0,
        "meta_classification_type": "U",
        "meta_norad_cat_id": 31495,
        "meta_element_set_no": 999,
        "meta_rev_at_epoch": 63500,
        "meta_bstar": 0.00086082116,
        "meta_mean_motion_dot": 2.149e-05,
        "meta_mean_motion_ddot": 0,
        "tle_line1": "1 31495U 99025BWJ 25354.39776793  .00002149  00000+0  86082-3 0  9999",
        "tle_line2": "2 31495  99.1200 227.9275 0025589 154.7696 205.4740 14.29252624635009"
      },
      "geometry": {
        "type": "Point",
        "coordinates": [
          -137.93411260254896,
          39.02264401460617
        ]
      }
    },
    {
      "type": "Feature",
      "properties": {
        "norad_id": 31497,
        "name": "FENGYUN 1C DEB",
        "group": "fengyun-1c-debris",
        "lat": 15.77427234573771,
        "lon": 161.6764698460585,
        "alt_km": 866.2539589460021,
        "timestamp": "2025-12-21T22:41:41.742675+00:00",
        "meta_object_name": "FENGYUN 1C DEB",
        "meta_object_id": "1999-025BWL",
        "meta_epoch": "2025-12-20T04:29:02.353920",
        "meta_mean_motion": 14.39239205,
        "meta_eccentricity": 0.01673435,
        "meta_inclination": 98.371,
        "meta_ra_of_asc_node": 337.5747,
        "meta_arg_of_pericenter": 320.7302,
        "meta_mean_anomaly": 96.6636,
        "meta_ephemeris_type": 0,
        "meta_classification_type": "U",
        "meta_norad_cat_id": 31497,
        "meta_element_set_no": 999,
        "meta_rev_at_epoch": 97662,
        "meta_bstar": 0.00018663983,
        "meta_mean_motion_dot": 6.31e-06,
        "meta_mean_motion_ddot": 0,
        "tle_line1": "1 31497U 99025BWL 25354.18683280  .00000631  00000+0  18664-3 0  9991",
        "tle_line2": "2 31497  98.3710 337.5747 0167343 320.7302  96.6636 14.39239205976625"
      },
      "geometry": {
        "type": "Point",
        "coordinates": [
          161.6764698460585,
          15.77427234573771
        ]
      }
    }
  ]
}